{"fetched_at":"2026-03-29T16:36:15Z","count":15609,"tles":[{"name":"STARLINK-11148 [DTC]","line1":"1 60044U 24112G   26087.61532964  .00002064  00000+0  21885-4 0  9992","line2":"2 60044  53.1599 172.9590 0001109  81.1949 278.9194 15.69718087103954","category":"Starlink"}]}